{
  "norad_id": 62009,
  "name": "STARLINK-11262 [DTC]",
  "history": [
    {
      "epoch": "2026-03-28T20:51:06.823872",
      "apogee_km": 360.39192580492545,
      "perigee_km": 358.9181011798937,
      "latitude_deg": 50.88575373820288,
      "longitude_deg": 104.30758207989857,
      "semi_major_axis_km": 6737.792013492409,
      "eccentricity": 0.00010937,
      "inclination_deg": 53.1573,
      "raan_deg": 306.9988,
      "arg_perigee_deg": 31.61,
      "mean_anomaly_deg": 328.4983,
      "mean_motion_rev_day": 15.69735069
    },
    {
      "epoch": "2026-03-28T23:54:28.756224",
      "apogee_km": 360.25187308465047,
      "perigee_km": 359.0242504683956,
      "latitude_deg": -9.161069964489016,
      "longitude_deg": 116.531951359706,
      "semi_major_axis_km": 6737.775061776523,
      "eccentricity": 9.11e-05,
      "inclination_deg": 53.1574,
      "raan_deg": 306.3724,
      "arg_perigee_deg": 114.0718,
      "mean_anomaly_deg": 246.0395,
      "mean_motion_rev_day": 15.69740993
    }
  ]
}